{
"type": "FeatureCollection",
"name": "Deslizamientos_CNE",
"crs": { "type": "name", "properties": { "name": "urn:ogc:def:crs:OGC:1.3:CRS84" } },
"features": [
{ "type": "Feature", "properties": { "GLOBALID": "{63ED3730-95B9-43E6-9CC3-9F122489F065}", "CREATED_USER": null, "CREATED_DATE": null, "LAST_EDITED_USER": null, "LAST_EDITED_DATE": null, "OBJECTID": 1, "SHAPELEN": 137.62616188828801 }, "geometry": { "type": "LineString", "coordinates": [ [ -84.16139046385689, 10.246307237178314 ], [ -84.161180017616431, 10.246291253668128 ], [ -84.160991832712099, 10.24655967175056 ], [ -84.161093890691347, 10.246878876110481 ], [ -84.161390730074217, 10.247109553359092 ] ] } },
{ "type": "Feature", "properties": { "GLOBALID": "{184DFAF3-E470-489E-87F7-6787101CDBE4}", "CREATED_USER": null, "CREATED_DATE": null, "LAST_EDITED_USER": null, "LAST_EDITED_DATE": null, "OBJECTID": 2, "SHAPELEN": 1171.74351531153 }, "geometry": { "type": "MultiLineString", "coordinates": [ [ [ -84.150562066606014, 10.287347129118777 ], [ -84.149712378029321, 10.288081499739469 ] ], [ [ -84.149075244058238, 10.288134010142711 ], [ -84.147607351023112, 10.286656494234778 ], [ -84.147385571438107, 10.286556009280483 ], [ -84.146736626422779, 10.286320562956703 ], [ -84.147266528729148, 10.285631943609532 ], [ -84.14791595006426, 10.285060926378851 ], [ -84.148702186397941, 10.284692507934427 ], [ -84.149265365158641, 10.284843818222061 ], [ -84.149829456506907, 10.284995129812696 ], [ -84.150135891096056, 10.285516070540034 ], [ -84.150631094393148, 10.286389721223859 ], [ -84.150887300675208, 10.286944084451052 ], [ -84.150699073376131, 10.287229674656926 ], [ -84.150562066606014, 10.287347129118777 ] ] ] } },
{ "type": "Feature", "properties": { "GLOBALID": "{ED3EDEBE-0933-4990-925C-B8CA0A4C9ACE}", "CREATED_USER": null, "CREATED_DATE": null, "LAST_EDITED_USER": null, "LAST_EDITED_DATE": null, "OBJECTID": 3, "SHAPELEN": 1.97968791732434 }, "geometry": { "type": "LineString", "coordinates": [ [ -84.148926727850309, 10.28475230862697 ], [ -84.148913940250921, 10.284764958382885 ] ] } },
{ "type": "Feature", "properties": { "GLOBALID": "{78F14FE0-94EC-4C25-BCCC-54D8978DC11B}", "CREATED_USER": null, "CREATED_DATE": null, "LAST_EDITED_USER": null, "LAST_EDITED_DATE": null, "OBJECTID": 4, "SHAPELEN": 19.656235784351001 }, "geometry": { "type": "LineString", "coordinates": [ [ -84.149241633025966, 10.284837475568068 ], [ -84.149114664155633, 10.2849630731628 ] ] } },
{ "type": "Feature", "properties": { "GLOBALID": "{593CC1F0-5A2A-4177-9DF0-63DCE1A049A7}", "CREATED_USER": null, "CREATED_DATE": null, "LAST_EDITED_USER": null, "LAST_EDITED_DATE": null, "OBJECTID": 5, "SHAPELEN": 37.474063657014803 }, "geometry": { "type": "LineString", "coordinates": [ [ -84.149556538854696, 10.284921739840888 ], [ -84.149314476247028, 10.285161188232744 ] ] } },
{ "type": "Feature", "properties": { "GLOBALID": "{BA0E31E4-D1F6-4F23-8681-51D7E0E04B60}", "CREATED_USER": null, "CREATED_DATE": null, "LAST_EDITED_USER": null, "LAST_EDITED_DATE": null, "OBJECTID": 6, "SHAPELEN": 51.756638554392197 }, "geometry": { "type": "LineString", "coordinates": [ [ -84.149848608266325, 10.285028592333138 ], [ -84.149514287674151, 10.285359302269784 ] ] } },
{ "type": "Feature", "properties": { "GLOBALID": "{02F4A443-EFCF-4328-BC68-8C54B1F5479A}", "CREATED_USER": null, "CREATED_DATE": null, "LAST_EDITED_USER": null, "LAST_EDITED_DATE": null, "OBJECTID": 7, "SHAPELEN": 43.696253252882002 }, "geometry": { "type": "LineString", "coordinates": [ [ -84.1499963547775, 10.285279114896291 ], [ -84.149714099776787, 10.285558321249134 ] ] } },
{ "type": "Feature", "properties": { "GLOBALID": "{5852FDBB-7B4A-42FC-8BEA-2A1EB72DFA2B}", "CREATED_USER": null, "CREATED_DATE": null, "LAST_EDITED_USER": null, "LAST_EDITED_DATE": null, "OBJECTID": 8, "SHAPELEN": 35.4943051033543 }, "geometry": { "type": "LineString", "coordinates": [ [ -84.150143186719603, 10.285529636904657 ], [ -84.149913911702768, 10.285756435027855 ] ] } },
{ "type": "Feature", "properties": { "GLOBALID": "{5511B68C-36FA-4F63-AAD2-DDFEA12DBC84}", "CREATED_USER": null, "CREATED_DATE": null, "LAST_EDITED_USER": null, "LAST_EDITED_DATE": null, "OBJECTID": 9, "SHAPELEN": 26.726953940918897 }, "geometry": { "type": "LineString", "coordinates": [ [ -84.150287278929625, 10.285783772259188 ], [ -84.150114636857481, 10.285954550062744 ] ] } },
{ "type": "Feature", "properties": { "GLOBALID": "{531BAA4E-3D6C-4AAE-8E01-6FA24DA681D7}", "CREATED_USER": null, "CREATED_DATE": null, "LAST_EDITED_USER": null, "LAST_EDITED_DATE": null, "OBJECTID": 10, "SHAPELEN": 18.100599941714599 }, "geometry": { "type": "LineString", "coordinates": [ [ -84.150431370944986, 10.286037005183495 ], [ -84.150314451108258, 10.286152663581731 ] ] } },
{ "type": "Feature", "properties": { "GLOBALID": "{2F6F9B5C-634F-49A6-AFB6-DAD2AD388992}", "CREATED_USER": null, "CREATED_DATE": null, "LAST_EDITED_USER": null, "LAST_EDITED_DATE": null, "OBJECTID": 11, "SHAPELEN": 9.4745997176661803 }, "geometry": { "type": "LineString", "coordinates": [ [ -84.150575464532977, 10.286291141299133 ], [ -84.150514263297524, 10.286351681139989 ] ] } },
{ "type": "Feature", "properties": { "GLOBALID": "{62E6C914-18E0-42CC-A6B9-A7F85BCFE043}", "CREATED_USER": null, "CREATED_DATE": null, "LAST_EDITED_USER": null, "LAST_EDITED_DATE": null, "OBJECTID": 12, "SHAPELEN": 65.332106169707998 }, "geometry": { "type": "LineString", "coordinates": [ [ -84.148483939825823, 10.284794544770287 ], [ -84.148061927782962, 10.285211996741378 ] ] } },
{ "type": "Feature", "properties": { "GLOBALID": "{BD5727EF-E10F-4BC8-9EFF-DBA02D7B5924}", "CREATED_USER": null, "CREATED_DATE": null, "LAST_EDITED_USER": null, "LAST_EDITED_DATE": null, "OBJECTID": 13, "SHAPELEN": 99.978024133506494 }, "geometry": { "type": "LineString", "coordinates": [ [ -84.148907545994774, 10.28477128416503 ], [ -84.148261738473138, 10.285410112464877 ] ] } },
{ "type": "Feature", "properties": { "GLOBALID": "{21C15B9C-D795-4BD2-9B85-7CD8AE6B691D}", "CREATED_USER": null, "CREATED_DATE": null, "LAST_EDITED_USER": null, "LAST_EDITED_DATE": null, "OBJECTID": 14, "SHAPELEN": 100.048833824488 }, "geometry": { "type": "LineString", "coordinates": [ [ -84.149108269899187, 10.284969398044662 ], [ -84.148461549411991, 10.285608227155091 ] ] } },
{ "type": "Feature", "properties": { "GLOBALID": "{B74F10CD-39EA-4BE8-90AA-377186264E92}", "CREATED_USER": null, "CREATED_DATE": null, "LAST_EDITED_USER": null, "LAST_EDITED_DATE": null, "OBJECTID": 15, "SHAPELEN": 99.978165554784994 }, "geometry": { "type": "LineString", "coordinates": [ [ -84.149308081990682, 10.285167513118456 ], [ -84.148662273579262, 10.285806343105632 ] ] } },
{ "type": "Feature", "properties": { "GLOBALID": "{C0470A94-95CB-403D-A0E9-A843D57681A5}", "CREATED_USER": null, "CREATED_DATE": null, "LAST_EDITED_USER": null, "LAST_EDITED_DATE": null, "OBJECTID": 16, "SHAPELEN": 99.978165554784994 }, "geometry": { "type": "LineString", "coordinates": [ [ -84.149507893843278, 10.285366531326671 ], [ -84.148862085440527, 10.286005361704301 ] ] } },
{ "type": "Feature", "properties": { "GLOBALID": "{402E564F-40C7-435D-910B-774F9503A798}", "CREATED_USER": null, "CREATED_DATE": null, "LAST_EDITED_USER": null, "LAST_EDITED_DATE": null, "OBJECTID": 17, "SHAPELEN": 99.978094770054497 }, "geometry": { "type": "LineString", "coordinates": [ [ -84.149707705520655, 10.285564646142577 ], [ -84.149061898041367, 10.286203476910289 ] ] } },
{ "type": "Feature", "properties": { "GLOBALID": "{23E6CFF5-BEAE-41AB-87B2-6D6D65CA1893}", "CREATED_USER": null, "CREATED_DATE": null, "LAST_EDITED_USER": null, "LAST_EDITED_DATE": null, "OBJECTID": 18, "SHAPELEN": 99.978024133506494 }, "geometry": { "type": "LineString", "coordinates": [ [ -84.149907517447147, 10.285762760829346 ], [ -84.149261709977935, 10.286401591083365 ] ] } },
{ "type": "Feature", "properties": { "GLOBALID": "{D8226743-6A4D-44C2-975F-F0EDBA740849}", "CREATED_USER": null, "CREATED_DATE": null, "LAST_EDITED_USER": null, "LAST_EDITED_DATE": null, "OBJECTID": 19, "SHAPELEN": 100.04876323798301 }, "geometry": { "type": "LineString", "coordinates": [ [ -84.150108243514552, 10.285960874963534 ], [ -84.149461523076681, 10.286599705126871 ] ] } },
{ "type": "Feature", "properties": { "GLOBALID": "{3C3CAA28-A7B8-4C33-A063-E4BE4E9511EF}", "CREATED_USER": null, "CREATED_DATE": null, "LAST_EDITED_USER": null, "LAST_EDITED_DATE": null, "OBJECTID": 20, "SHAPELEN": 99.978165554784994 }, "geometry": { "type": "LineString", "coordinates": [ [ -84.150308056852452, 10.286158988486791 ], [ -84.149662248493641, 10.286797820428223 ] ] } },
{ "type": "Feature", "properties": { "GLOBALID": "{92AFEB56-0238-42A2-A64D-BDD587C57B47}", "CREATED_USER": null, "CREATED_DATE": null, "LAST_EDITED_USER": null, "LAST_EDITED_DATE": null, "OBJECTID": 21, "SHAPELEN": 99.978236191333195 }, "geometry": { "type": "LineString", "coordinates": [ [ -84.150507869041803, 10.286358006048935 ], [ -84.149862060692172, 10.28699683928502 ] ] } },
{ "type": "Feature", "properties": { "GLOBALID": "{2F8B45A3-A2C7-4CE3-BEA9-FFF0C1495B13}", "CREATED_USER": null, "CREATED_DATE": null, "LAST_EDITED_USER": null, "LAST_EDITED_DATE": null, "OBJECTID": 22, "SHAPELEN": 99.978165554784994 }, "geometry": { "type": "LineString", "coordinates": [ [ -84.150707682879016, 10.286556120217973 ], [ -84.150061874539531, 10.287194952940441 ] ] } },
{ "type": "Feature", "properties": { "GLOBALID": "{E51BBA3D-EA8F-4E12-874B-223352470989}", "CREATED_USER": null, "CREATED_DATE": null, "LAST_EDITED_USER": null, "LAST_EDITED_DATE": null, "OBJECTID": 23, "SHAPELEN": 88.523736498749301 }, "geometry": { "type": "LineString", "coordinates": [ [ -84.150833507189503, 10.286827423990648 ], [ -84.150261688636078, 10.287393066466656 ] ] } },
{ "type": "Feature", "properties": { "GLOBALID": "{9BF0EABC-5456-47F9-8ECE-508863CCDEAD}", "CREATED_USER": null, "CREATED_DATE": null, "LAST_EDITED_USER": null, "LAST_EDITED_DATE": null, "OBJECTID": 24, "SHAPELEN": 99.978165554784994 }, "geometry": { "type": "LineString", "coordinates": [ [ -84.14805553350034, 10.285218321602718 ], [ -84.147409722433579, 10.285857149128047 ] ] } },
{ "type": "Feature", "properties": { "GLOBALID": "{AC0BF3F2-F228-4989-B9D8-FA03FD5E2EAC}", "CREATED_USER": null, "CREATED_DATE": null, "LAST_EDITED_USER": null, "LAST_EDITED_DATE": null, "OBJECTID": 25, "SHAPELEN": 99.978165554784994 }, "geometry": { "type": "LineString", "coordinates": [ [ -84.148255344190602, 10.285416437330097 ], [ -84.147609533134229, 10.286055265245892 ] ] } },
{ "type": "Feature", "properties": { "GLOBALID": "{8EC61CEA-8648-4A22-96B9-E943673DD833}", "CREATED_USER": null, "CREATED_DATE": null, "LAST_EDITED_USER": null, "LAST_EDITED_DATE": null, "OBJECTID": 26, "SHAPELEN": 99.978094770054497 }, "geometry": { "type": "LineString", "coordinates": [ [ -84.148455155129568, 10.28561455202418 ], [ -84.147809344996574, 10.286253380330043 ] ] } },
{ "type": "Feature", "properties": { "GLOBALID": "{D81366B4-6560-40D6-8634-A5EB7AA382D1}", "CREATED_USER": null, "CREATED_DATE": null, "LAST_EDITED_USER": null, "LAST_EDITED_DATE": null, "OBJECTID": 27, "SHAPELEN": 100.04876323798301 }, "geometry": { "type": "LineString", "coordinates": [ [ -84.148655879719911, 10.285813572145905 ], [ -84.148009156616254, 10.286452399452806 ] ] } },
{ "type": "Feature", "properties": { "GLOBALID": "{BD9EB824-683E-4C3F-93AF-891B23C029E3}", "CREATED_USER": null, "CREATED_DATE": null, "LAST_EDITED_USER": null, "LAST_EDITED_DATE": null, "OBJECTID": 28, "SHAPELEN": 99.978024133506494 }, "geometry": { "type": "LineString", "coordinates": [ [ -84.14885569115873, 10.286011687485304 ], [ -84.148209881046199, 10.286650515669786 ] ] } },
{ "type": "Feature", "properties": { "GLOBALID": "{C2F46D6B-08A8-401B-A1F6-EE4780495C45}", "CREATED_USER": null, "CREATED_DATE": null, "LAST_EDITED_USER": null, "LAST_EDITED_DATE": null, "OBJECTID": 29, "SHAPELEN": 99.978094918287013 }, "geometry": { "type": "LineString", "coordinates": [ [ -84.149055503759243, 10.286209801790976 ], [ -84.148409692744181, 10.286848630366404 ] ] } },
{ "type": "Feature", "properties": { "GLOBALID": "{11B2B24E-C218-4AB2-BA5B-5F85C727B1F7}", "CREATED_USER": null, "CREATED_DATE": null, "LAST_EDITED_USER": null, "LAST_EDITED_DATE": null, "OBJECTID": 30, "SHAPELEN": 99.978165554784994 }, "geometry": { "type": "LineString", "coordinates": [ [ -84.149255316608929, 10.286407915967517 ], [ -84.148609505604739, 10.287046745837616 ] ] } },
{ "type": "Feature", "properties": { "GLOBALID": "{D35D6F4C-F137-4EBE-B2AF-5521F78C9288}", "CREATED_USER": null, "CREATED_DATE": null, "LAST_EDITED_USER": null, "LAST_EDITED_DATE": null, "OBJECTID": 31, "SHAPELEN": 99.978236191333195 }, "geometry": { "type": "LineString", "coordinates": [ [ -84.14945512879477, 10.286606030015308 ], [ -84.148809317801494, 10.287244861180097 ] ] } },
{ "type": "Feature", "properties": { "GLOBALID": "{458F5C37-BE92-4D02-B761-6CA50F1B3EF9}", "CREATED_USER": null, "CREATED_DATE": null, "LAST_EDITED_USER": null, "LAST_EDITED_DATE": null, "OBJECTID": 32, "SHAPELEN": 100.048833824488 }, "geometry": { "type": "LineString", "coordinates": [ [ -84.149655853724738, 10.286805049488175 ], [ -84.149009130671033, 10.287443879656474 ] ] } },
{ "type": "Feature", "properties": { "GLOBALID": "{C081026F-1350-49A3-A981-8D3AEF5D7B70}", "CREATED_USER": null, "CREATED_DATE": null, "LAST_EDITED_USER": null, "LAST_EDITED_DATE": null, "OBJECTID": 33, "SHAPELEN": 99.978024133506494 }, "geometry": { "type": "LineString", "coordinates": [ [ -84.149855666410474, 10.287003164181209 ], [ -84.149209856350367, 10.287641994320106 ] ] } },
{ "type": "Feature", "properties": { "GLOBALID": "{E72390E4-655F-42BF-9536-9CA5DF481175}", "CREATED_USER": null, "CREATED_DATE": null, "LAST_EDITED_USER": null, "LAST_EDITED_DATE": null, "OBJECTID": 34, "SHAPELEN": 99.978024133506494 }, "geometry": { "type": "LineString", "coordinates": [ [ -84.150055480257947, 10.287201277840479 ], [ -84.149409670208385, 10.287840108369943 ] ] } },
{ "type": "Feature", "properties": { "GLOBALID": "{4AEB2198-8BD9-4B2A-846F-C0CEAB35B71B}", "CREATED_USER": null, "CREATED_DATE": null, "LAST_EDITED_USER": null, "LAST_EDITED_DATE": null, "OBJECTID": 35, "SHAPELEN": 99.978094918287013 }, "geometry": { "type": "LineString", "coordinates": [ [ -84.15025529435502, 10.287399392274747 ], [ -84.149609483403012, 10.288038223195175 ] ] } },
{ "type": "Feature", "properties": { "GLOBALID": "{B79FD0F8-CCF3-4690-A901-0A70E133FDB2}", "CREATED_USER": null, "CREATED_DATE": null, "LAST_EDITED_USER": null, "LAST_EDITED_DATE": null, "OBJECTID": 36, "SHAPELEN": 80.039016132133995 }, "geometry": { "type": "LineString", "coordinates": [ [ -84.147403328124994, 10.285863473976624 ], [ -84.146886312721492, 10.286374896176877 ] ] } },
{ "type": "Feature", "properties": { "GLOBALID": "{903FC15E-54E4-418F-A369-E9ABEF15E07E}", "CREATED_USER": null, "CREATED_DATE": null, "LAST_EDITED_USER": null, "LAST_EDITED_DATE": null, "OBJECTID": 37, "SHAPELEN": 65.614878386689085 }, "geometry": { "type": "LineString", "coordinates": [ [ -84.147603138825744, 10.286061590098354 ], [ -84.147179297000164, 10.28648084738172 ] ] } },
{ "type": "Feature", "properties": { "GLOBALID": "{B0C56F57-B931-4851-A5E9-01D7664757EB}", "CREATED_USER": null, "CREATED_DATE": null, "LAST_EDITED_USER": null, "LAST_EDITED_DATE": null, "OBJECTID": 38, "SHAPELEN": 52.039481556314492 }, "geometry": { "type": "LineString", "coordinates": [ [ -84.147802951109171, 10.28626061025785 ], [ -84.147466799217725, 10.286593124561128 ] ] } },
{ "type": "Feature", "properties": { "GLOBALID": "{C7742520-E9F9-4C5A-ABC7-D5BAD4F7D933}", "CREATED_USER": null, "CREATED_DATE": null, "LAST_EDITED_USER": null, "LAST_EDITED_DATE": null, "OBJECTID": 39, "SHAPELEN": 46.2417682984767 }, "geometry": { "type": "LineString", "coordinates": [ [ -84.148002762307954, 10.286458724312999 ], [ -84.147704061961363, 10.286754194280359 ] ] } },
{ "type": "Feature", "properties": { "GLOBALID": "{C952D7CF-CDB1-462F-B292-2CBC1A8F0BCD}", "CREATED_USER": null, "CREATED_DATE": null, "LAST_EDITED_USER": null, "LAST_EDITED_DATE": null, "OBJECTID": 40, "SHAPELEN": 46.524469730777199 }, "geometry": { "type": "LineString", "coordinates": [ [ -84.148203486738012, 10.286656840533864 ], [ -84.147902960361137, 10.286954117138754 ] ] } },
{ "type": "Feature", "properties": { "GLOBALID": "{D4D19142-29D6-445D-BCB7-2D77AACD136C}", "CREATED_USER": null, "CREATED_DATE": null, "LAST_EDITED_USER": null, "LAST_EDITED_DATE": null, "OBJECTID": 41, "SHAPELEN": 46.807312584360098 }, "geometry": { "type": "LineString", "coordinates": [ [ -84.148403298436122, 10.286854955234334 ], [ -84.148100945115559, 10.287154039382724 ] ] } },
{ "type": "Feature", "properties": { "GLOBALID": "{BD47C7C5-CD4A-4FA9-8170-883C4951EE73}", "CREATED_USER": null, "CREATED_DATE": null, "LAST_EDITED_USER": null, "LAST_EDITED_DATE": null, "OBJECTID": 42, "SHAPELEN": 46.948663374583894 }, "geometry": { "type": "LineString", "coordinates": [ [ -84.148603111296765, 10.287053070709428 ], [ -84.148299844506425, 10.287353057817899 ] ] } },
{ "type": "Feature", "properties": { "GLOBALID": "{9EE5EEB6-D94C-46B0-B2BF-863CA1A8CEF8}", "CREATED_USER": null, "CREATED_DATE": null, "LAST_EDITED_USER": null, "LAST_EDITED_DATE": null, "OBJECTID": 43, "SHAPELEN": 47.0900140166681 }, "geometry": { "type": "LineString", "coordinates": [ [ -84.148802923004084, 10.287252090223413 ], [ -84.148498743656546, 10.28755298119685 ] ] } },
{ "type": "Feature", "properties": { "GLOBALID": "{9C456A11-9DE5-450C-AE75-EE157F968B0F}", "CREATED_USER": null, "CREATED_DATE": null, "LAST_EDITED_USER": null, "LAST_EDITED_DATE": null, "OBJECTID": 44, "SHAPELEN": 47.372927654938096 }, "geometry": { "type": "LineString", "coordinates": [ [ -84.149002736363258, 10.287450204536018 ], [ -84.14869672915917, 10.287752903058871 ] ] } },
{ "type": "Feature", "properties": { "GLOBALID": "{A6429F38-17BA-4995-91F6-D9819C602E13}", "CREATED_USER": null, "CREATED_DATE": null, "LAST_EDITED_USER": null, "LAST_EDITED_DATE": null, "OBJECTID": 45, "SHAPELEN": 47.655841293276893 }, "geometry": { "type": "LineString", "coordinates": [ [ -84.149203462955711, 10.287648319203116 ], [ -84.148895627896025, 10.287952825278447 ] ] } },
{ "type": "Feature", "properties": { "GLOBALID": "{F630007A-042A-4D2C-8A49-B5E4CC18B0BC}", "CREATED_USER": null, "CREATED_DATE": null, "LAST_EDITED_USER": null, "LAST_EDITED_DATE": null, "OBJECTID": 46, "SHAPELEN": 36.538985125616193 }, "geometry": { "type": "LineString", "coordinates": [ [ -84.149403275901236, 10.28784643416139 ], [ -84.14916725122346, 10.288079907621883 ] ] } },
{ "type": "Feature", "properties": { "GLOBALID": "{2DB1C920-F4C7-4DCB-AD63-BAB315A5DC8A}", "CREATED_USER": null, "CREATED_DATE": null, "LAST_EDITED_USER": null, "LAST_EDITED_DATE": null, "OBJECTID": 47, "SHAPELEN": 9.705399392606159 }, "geometry": { "type": "LineString", "coordinates": [ [ -84.161390488497773, 10.246383014680955 ], [ -84.161327806942978, 10.24644503200502 ] ] } },
{ "type": "Feature", "properties": { "GLOBALID": "{37598A04-E9E6-4FC8-BA25-8915C6E7A93F}", "CREATED_USER": null, "CREATED_DATE": null, "LAST_EDITED_USER": null, "LAST_EDITED_DATE": null, "OBJECTID": 48, "SHAPELEN": 42.847724544017503 }, "geometry": { "type": "LineString", "coordinates": [ [ -84.161321413694722, 10.246451357127507 ], [ -84.161044683528445, 10.246725151941423 ] ] } },
{ "type": "Feature", "properties": { "GLOBALID": "{3213D7A8-24F8-42AA-A102-4DAE84C13737}", "CREATED_USER": null, "CREATED_DATE": null, "LAST_EDITED_USER": null, "LAST_EDITED_DATE": null, "OBJECTID": 49, "SHAPELEN": 28.949959826742401 }, "geometry": { "type": "LineString", "coordinates": [ [ -84.161390619543624, 10.246779198036728 ], [ -84.161203379966196, 10.246963921348479 ] ] } },
{ "type": "Feature", "properties": { "GLOBALID": "{706DFD04-5A84-4059-BF25-706905E1C14A}", "CREATED_USER": null, "CREATED_DATE": null, "LAST_EDITED_USER": null, "LAST_EDITED_DATE": null, "OBJECTID": 50, "SHAPELEN": 579.93474976081905 }, "geometry": { "type": "MultiLineString", "coordinates": [ [ [ -84.136041912188148, 10.273102425071675 ], [ -84.135252635742518, 10.273615406104746 ] ], [ [ -84.134784279885849, 10.273287800118123 ], [ -84.134801233239884, 10.273220997610021 ], [ -84.134596887899633, 10.273002076523056 ], [ -84.133981895146135, 10.272548734960669 ], [ -84.133965613383808, 10.272313656896696 ], [ -84.134665993189117, 10.271994945802854 ], [ -84.135041365873931, 10.2717094811208 ], [ -84.135758323910125, 10.272599566586084 ], [ -84.136041912188148, 10.273102425071675 ] ] ] } },
{ "type": "Feature", "properties": { "GLOBALID": "{1F45AB04-570D-448B-B9F2-0AC28DE3DF67}", "CREATED_USER": null, "CREATED_DATE": null, "LAST_EDITED_USER": null, "LAST_EDITED_DATE": null, "OBJECTID": 51, "SHAPELEN": 54.160732173226798 }, "geometry": { "type": "LineString", "coordinates": [ [ -84.135142615777923, 10.271835214262955 ], [ -84.134792764374964, 10.272181270369705 ] ] } },
{ "type": "Feature", "properties": { "GLOBALID": "{E1DE6BA7-5D0B-4AE4-AFBD-2372EF4441C3}", "CREATED_USER": null, "CREATED_DATE": null, "LAST_EDITED_USER": null, "LAST_EDITED_DATE": null, "OBJECTID": 52, "SHAPELEN": 50.766759203439399 }, "geometry": { "type": "LineString", "coordinates": [ [ -84.135320486771292, 10.272055023114069 ], [ -84.134992558611387, 10.272379393745027 ] ] } },
{ "type": "Feature", "properties": { "GLOBALID": "{E9A429AF-2894-4D6D-BE4A-31E5FFF8A0C8}", "CREATED_USER": null, "CREATED_DATE": null, "LAST_EDITED_USER": null, "LAST_EDITED_DATE": null, "OBJECTID": 53, "SHAPELEN": 47.2314354434629 }, "geometry": { "type": "LineString", "coordinates": [ [ -84.135497444927296, 10.27227663877205 ], [ -84.135192353480775, 10.272578421160304 ] ] } },
{ "type": "Feature", "properties": { "GLOBALID": "{A886446D-C2B9-419E-9705-72D57176BE5E}", "CREATED_USER": null, "CREATED_DATE": null, "LAST_EDITED_USER": null, "LAST_EDITED_DATE": null, "OBJECTID": 54, "SHAPELEN": 43.696041046872899 }, "geometry": { "type": "LineString", "coordinates": [ [ -84.135675315886516, 10.272497351585296 ], [ -84.135393061157288, 10.27277654480147 ] ] } },
{ "type": "Feature", "properties": { "GLOBALID": "{D9844423-B56A-44C7-B901-C213735522EF}", "CREATED_USER": null, "CREATED_DATE": null, "LAST_EDITED_USER": null, "LAST_EDITED_DATE": null, "OBJECTID": 55, "SHAPELEN": 37.473993020493602 }, "geometry": { "type": "LineString", "coordinates": [ [ -84.135834920071304, 10.272735230353707 ], [ -84.135592856141287, 10.272974667790283 ] ] } },
{ "type": "Feature", "properties": { "GLOBALID": "{58D5C27D-6DDF-4FF4-BEB7-FF4D1054AE67}", "CREATED_USER": null, "CREATED_DATE": null, "LAST_EDITED_USER": null, "LAST_EDITED_DATE": null, "OBJECTID": 56, "SHAPELEN": 28.706571221586199 }, "geometry": { "type": "LineString", "coordinates": [ [ -84.135978082053413, 10.27298937288267 ], [ -84.135792651374459, 10.273172791554622 ] ] } },
{ "type": "Feature", "properties": { "GLOBALID": "{C40318C4-816B-4699-9F0D-A9AA38FC8AB7}", "CREATED_USER": null, "CREATED_DATE": null, "LAST_EDITED_USER": null, "LAST_EDITED_DATE": null, "OBJECTID": 57, "SHAPELEN": 78.059116157179204 }, "geometry": { "type": "LineString", "coordinates": [ [ -84.134508932931368, 10.272066272118483 ], [ -84.134004707273704, 10.272565023180483 ] ] } },
{ "type": "Feature", "properties": { "GLOBALID": "{AC3303A5-CAC2-4F35-9FB0-A95D1AE1BA8A}", "CREATED_USER": null, "CREATED_DATE": null, "LAST_EDITED_USER": null, "LAST_EDITED_DATE": null, "OBJECTID": 58, "SHAPELEN": 85.553886388053698 }, "geometry": { "type": "LineString", "coordinates": [ [ -84.134786370083347, 10.27218759497446 ], [ -84.134233732420626, 10.272734234095211 ] ] } },
{ "type": "Feature", "properties": { "GLOBALID": "{9F9B187B-9CF5-4FA0-BAD0-0E55895A3A77}", "CREATED_USER": null, "CREATED_DATE": null, "LAST_EDITED_USER": null, "LAST_EDITED_DATE": null, "OBJECTID": 59, "SHAPELEN": 80.95807082681749 }, "geometry": { "type": "LineString", "coordinates": [ [ -84.134986164319869, 10.272385718353647 ], [ -84.134463669839548, 10.272903445369522 ] ] } },
{ "type": "Feature", "properties": { "GLOBALID": "{5C63870C-F16A-4FD5-9E0A-41C317BDDA2D}", "CREATED_USER": null, "CREATED_DATE": null, "LAST_EDITED_USER": null, "LAST_EDITED_DATE": null, "OBJECTID": 60, "SHAPELEN": 78.76622329107829 }, "geometry": { "type": "LineString", "coordinates": [ [ -84.135185959189329, 10.272584745772766 ], [ -84.134677166430222, 10.273088016087174 ] ] } },
{ "type": "Feature", "properties": { "GLOBALID": "{98C90B31-06BB-4FAB-810D-87DF868C4559}", "CREATED_USER": null, "CREATED_DATE": null, "LAST_EDITED_USER": null, "LAST_EDITED_DATE": null, "OBJECTID": 61, "SHAPELEN": 75.798783652311997 }, "geometry": { "type": "LineString", "coordinates": [ [ -84.135386666865969, 10.272782869417828 ], [ -84.134896689903911, 10.273266830023269 ] ] } },
{ "type": "Feature", "properties": { "GLOBALID": "{73B22DC7-6ECB-4347-BB4C-E85CBE6E4B1D}", "CREATED_USER": null, "CREATED_DATE": null, "LAST_EDITED_USER": null, "LAST_EDITED_DATE": null, "OBJECTID": 62, "SHAPELEN": 64.428281889012098 }, "geometry": { "type": "LineString", "coordinates": [ [ -84.135586461850039, 10.272980992410501 ], [ -84.135170285758974, 10.27339265236388 ] ] } },
{ "type": "Feature", "properties": { "GLOBALID": "{E341E422-5A35-49F5-ABB4-47DC12F4B877}", "CREATED_USER": null, "CREATED_DATE": null, "LAST_EDITED_USER": null, "LAST_EDITED_DATE": null, "OBJECTID": 63, "SHAPELEN": 40.867895353810397 }, "geometry": { "type": "LineString", "coordinates": [ [ -84.135786257083311, 10.273179116178703 ], [ -84.13552226946419, 10.273440238372929 ] ] } },
{ "type": "Feature", "properties": { "GLOBALID": "{74147896-16F3-4BCA-BD41-A662DECB0FB5}", "CREATED_USER": null, "CREATED_DATE": null, "LAST_EDITED_USER": null, "LAST_EDITED_DATE": null, "OBJECTID": 64, "SHAPELEN": 907.76566712808801 }, "geometry": { "type": "LineString", "coordinates": [ [ -84.143428075224193, 10.173953096954639 ], [ -84.141362573238396, 10.174105232825191 ], [ -84.139524998769389, 10.17505196790419 ], [ -84.138213159897759, 10.176639867790453 ], [ -84.137639670603576, 10.178611589203033 ] ] } },
{ "type": "Feature", "properties": { "GLOBALID": "{095141A9-0292-4129-806F-495C233ABF67}", "CREATED_USER": null, "CREATED_DATE": null, "LAST_EDITED_USER": null, "LAST_EDITED_DATE": null, "OBJECTID": 65, "SHAPELEN": 887.61271390135698 }, "geometry": { "type": "LineString", "coordinates": [ [ -84.143398009285903, 10.181124903763616 ], [ -84.144587292496539, 10.179504252464552 ], [ -84.144903634596531, 10.178546963453901 ], [ -84.14491202539115, 10.176543316379709 ], [ -84.144101844699179, 10.174707441778425 ], [ -84.143428077042643, 10.173953081582878 ] ] } },
{ "type": "Feature", "properties": { "GLOBALID": "{DC3CBADC-CFB3-41E7-8E5D-5F41655B9E04}", "CREATED_USER": null, "CREATED_DATE": null, "LAST_EDITED_USER": null, "LAST_EDITED_DATE": null, "OBJECTID": 66, "SHAPELEN": 555.4880216002141 }, "geometry": { "type": "LineString", "coordinates": [ [ -84.142846762645235, 10.175238925403606 ], [ -84.140802464445756, 10.179835071796791 ] ] } },
{ "type": "Feature", "properties": { "GLOBALID": "{C95BA3B6-CCA2-44BE-8E16-6D83DF02E117}", "CREATED_USER": null, "CREATED_DATE": null, "LAST_EDITED_USER": null, "LAST_EDITED_DATE": null, "OBJECTID": 67, "SHAPELEN": 135.00740070133202 }, "geometry": { "type": "LineString", "coordinates": [ [ -84.140802464445756, 10.179835071796791 ], [ -84.141900668421343, 10.179281516207714 ] ] } },
{ "type": "Feature", "properties": { "GLOBALID": "{E127294D-893D-40DF-8F8D-B966EDC06978}", "CREATED_USER": null, "CREATED_DATE": null, "LAST_EDITED_USER": null, "LAST_EDITED_DATE": null, "OBJECTID": 68, "SHAPELEN": 135.128570289077 }, "geometry": { "type": "LineString", "coordinates": [ [ -84.140802464445756, 10.179835071796791 ], [ -84.140472825741085, 10.178657727034029 ] ] } }
]
}
